ProjectName,Address,Zipcode,TotalUnits,TotalAffordableUnits,UnitType,HousingType,Status,1PersonHousehold,2PersonHousehold,3PersonHousehold,4PersonHousehold,5PersonHousehold,PropertyManagementCompany,Phone,Website,Longitude,Latitude,Location
M Station,2906 E Martin Luther King Jr Boulevard,78722,150,140,Multifamily,Residential Housing,Project Completed,48200,55050,61950,68800,74350,Foundation Communities,512-474-6767,http://foundcom.org/housing/our-austin-communities/m-station-apartments/,-97.70841372,30.28200722,"(30.2820072186666, -97.7084137218687)"
"Garden Terrace Expansion (aka Garden Terrace, Phase II)",1015 W William Cannon Drive,78745,15,15,Multifamily,Residential Housing,Project Completed,30100,24400,38700,43000,46450,Foundation Communities,512-416-8300,http://foundcom.org/housing/our-austin-communities/garden-terrace/,-97.79342653,30.19864089,"(30.1986408937312, -97.7934265318501)"
"Garden Terrace Expansion (aka Garden Terrace, Phase II)",1015 W William Cannon Drive,78745,15,15,Multifamily,Residential Housing,Project Completed,30100,24400,38700,43000,46450,Foundation Communities,512-416-5300,http://foundcom.org/housing/our-austin-communities/garden-terrace/,-97.79342653,30.19864089,"(30.1986408937312, -97.7934265318501)"
LifeWorks Transitional Living Project,3710 S 2nd Street,78704,12,12,Multifamily,Transitional Housing,Project Completed,30100,24400,38700,43000,46450,Lifeworks,512-735-2100,http://www.lifeworksaustin.org/housing/,-97.77101974,30.22983682,"(30.2298368209301, -97.7710197443868)"
Cornerstone,1322 Lamar Square Drive,78704,30,30,Multifamily,Residential Housing,Project Completed,30100,24400,38700,43000,46450,Mary Lee Foundation,512-443-5777,http://www.maryleefoundation.org/programs-and-services/affordable-housing/,-97.76422389,30.25530621,"(30.2553062066707, -97.7642238885743)"
The Willows,1330 Lamar Square Drive,78704,64,64,Multifamily,Residential Housing,Project Completed,48200,55050,61950,68800,74350,Mary Lee Foundation,512-443-5777,http://www.maryleefoundation.org/programs-and-services/affordable-housing/,-97.76503931,30.2544562,"(30.2544562030313, -97.765039314016)"
Arbor Terrace,2501 S IH-35,78741,120,120,Multifamily,Residential Housing,Project Completed,30100,24400,38700,43000,46450,Foundation Communities,512-610-0817,http://foundcom.org/housing/our-austin-communities/arbor-terrace/,-97.7413955,30.23146027,"(30.2314602729335, -97.7413954956676)"
Sierra Vista (fka Shady Oaks),4320 S Congress Avenue,78745,238,238,Multifamily,Residential Housing,Project Completed,48200,55050,61950,68800,74350,Foundation Communities,512-448-4884,http://foundcom.org/housing/our-austin-communities/sierra-vista-apartments/,-97.7671846,30.2190338,"(30.2190337978803, -97.7671845964581)"
Crossroads Apartments,8801 McCann Drive,78757,14,14,Multifamily,Residential Housing,Project Completed,18100,20650,23250,25800,27900,Foundation Communities,512-452-5987,http://foundcom.org/housing/our-austin-communities/crossroads-apartments/,-97.72944801,30.37273049,"(30.3727304927457, -97.7294480083748)"
904 Lydia,904 Lydia Street,78702,1,1,Single Family,Residential Housing,Project Completed,18100,20650,23250,25800,27900,Guadalupe Neighborhood Development Corporation,512-479-6275,http://www.guadalupendc.org,-97.7285517,30.26740527,"(30.267405274892, -97.7285517036128)"
303 San Saba Street,303 San Saba Street,78702,1,1,Single Family,Residential Housing,Project Completed,36120,41280,46440,51600,55740,Guadalupe Neighborhood Development Corporation,512-479-6275,http://www.guadalupendc.org,-97.71440878,30.25588549,"(30.2558854868315, -97.7144087756145)"
1002 Wheeless Street,1002 Wheeless Street,78702,2,2,Duplex,Residential Housing,Project Completed,36120,41280,46440,51600,55740,Guadalupe Neighborhood Development Corporation,512-479-6275,http://www.guadalupendc.org,-97.72775965,30.26797186,"(30.2679718599611, -97.7277596502184)"
809 San Marcos Street,809 San Marcos Street,78702,1,1,Duplex,Residential Housing,Project Completed,36120,41280,46440,51600,55740,Guadalupe Neighborhood Development Corporation,512-479-6275,http://www.guadalupendc.org,-97.73115103,30.26721606,"(30.2672160595881, -97.731151025874)"
2320 Santa Rita Street,2320 Santa Rita Street,78702,1,1,Single Family,Residential Housing,Project Completed,36120,41280,46440,51600,55740,Guadalupe Neighborhood Development Corporation,512-479-6275,http://www.guadalupendc.org,-97.71726547,30.25706987,"(30.2570698735729, -97.7172654651854)"
907 Spence Street,907 Spence Street,78702,1,1,Duplex,Residential Housing,Project Completed,36120,41280,46440,51600,55740,Guadalupe Neighborhood Development Corporation,512-479-6275,http://www.guadalupendc.org,-97.73580458,30.2586854,"(30.2586854019468, -97.7358045754509)"
1009 E 10th Street,1009 E 10th Street,78702,1,1,Duplex,Residential Housing,Project Completed,36120,41280,46440,51600,55740,Guadalupe Neighborhood Development Corporation,512-479-6275,http://www.guadalupendc.org,-97.73057811,30.26842833,"(30.2684283282867, -97.7305781128068)"
Garden Terrace Phase I,1015 W William Cannon Drive,78745,85,85,Multifamily,Residential Housing,Project Completed,30100,24400,38700,43000,46450,Foundation Communities,512-416-8300,http://foundcom.org/housing/our-austin-communities/garden-terrace/,-97.79342653,30.19864089,"(30.1986408937312, -97.7934265318501)"
Garden Terrace Phase I,1015 W William Cannon Drive,78745,85,85,Multifamily,Residential Housing,Project Completed,30100,24400,38700,43000,46450,Foundation Communities,512-416-5300,http://foundcom.org/housing/our-austin-communities/garden-terrace/,-97.79342653,30.19864089,"(30.1986408937312, -97.7934265318501)"
Southwest Trails Apartments,8405 Old Bee Caves Road,78735,160,160,Multifamily,Residential Housing,Project Completed,36120,41280,46440,51600,55740,Foundation Communities,512-301-2442,http://foundcom.org/housing/our-austin-communities/southwest-trails-apartments/,-97.88724303,30.25122411,"(30.2512241070173, -97.8872430326643)"
Ivy Condos,3204 Manchaca Road,78704,8,8,Multifamily,Residential Housing,Project Completed,30100,24400,38700,43000,46450,Easter Seals of Central Texas,512-615-6820,http://www.easterseals.com/centraltx/our-programs/adult-services/community-housing-services/,-97.78266876,30.24027574,"(30.2402757402636, -97.7826687601118)"
1109 Spearson Lane,1109 Spearson Lane,78745,3,3,Single Family,Transitional Housing,Project Completed,30100,24400,38700,43000,46450,Green Doors,512-469-9130,http://www.greendoors.org/,-97.79420218,30.20138457,"(30.2013845727143, -97.7942021779392)"
5406 Village Trail,5406 Village Trail,78744,3,3,Single Family,Transitional Housing,Project Completed,30100,24400,38700,43000,46450,Green Doors,512-469-9130,http://www.greendoors.org/,-97.74598478,30.19478667,"(30.1947866738427, -97.7459847828035)"
702 Plumpton Drive,702 Plumpton Drive,78745,3,3,Single Family,Transitional Housing,Project Completed,30100,24400,38700,43000,46450,Green Doors,512-469-9130,http://www.greendoors.org/,-97.79082191,30.19504682,"(30.1950468158668, -97.7908219142665)"
2505 Village Trail Circle,2505 Village Trail Circle,78744,7,7,Single Family,Transitional Housing,Project Completed,18100,20650,23250,25800,27900,Green Doors,512-469-9130,http://www.greendoors.org/,-97.74598478,30.19478667,"(30.1947866738427, -97.7459847828035)"
2407 S 4th Street,2407 S 4th Street,78704,3,3,Single Family,Transitional Housing,Project Completed,18100,20650,23250,25800,27900,Green Doors,512-469-9130,http://www.greendoors.org/,-97.76324138,30.24261575,"(30.24261574799, -97.7632413782669)"
7605 Elderberry Drive,7605 Elderberry Drive,78745,4,4,Single Family,Transitional Housing,Project Completed,18100,20650,23250,25800,27900,Green Doors,512-469-9130,http://www.greendoors.org/,-97.78944399,30.18569319,"(30.1856931860589, -97.7894439858316)"
2014 Covered Wagon Pass,2014 Covered Wagon Pass,78744,3,3,Single Family,Transitional Housing,Project Completed,30100,24400,38700,43000,46450,Green Doors,512-469-9130,http://www.greendoors.org/,-97.75870203,30.19322232,"(30.1932223225175, -97.7587020302195)"
5611 Teri Road,5611 Teri Road,78744,3,3,Single Family,Transitional Housing,Project Completed,30100,24400,38700,43000,46450,Green Doors,512-469-9130,http://www.greendoors.org/,-97.73381984,30.19275255,"(30.1927525514336, -97.7338198423955)"
904 Neal Street,904 Neal Street,78702,2,2,Duplex,Residential Housing,Project Completed,30100,24400,38700,43000,46450,Green Doors,512-469-9130,http://www.greendoors.org/,-97.71005882,30.26846974,"(30.2684697354704, -97.7100588157448)"
908 Neal Street,908 Neal Street,78702,2,2,Duplex,Residential Housing,Project Completed,30100,24400,38700,43000,46450,Green Doors,512-469-9130,http://www.greendoors.org/,-97.71023674,30.26860702,"(30.2686070180355, -97.710236739434)"
912 Neal Street,912 Neal Street,78702,1,1,Single Family,Residential Housing,Project Completed,30100,24400,38700,43000,46450,Green Doors,512-469-9130,http://www.greendoors.org/,-97.71035687,30.26871633,"(30.2687163287403, -97.7103568683844)"
916 Neal Street,916 Neal Street,78702,1,1,Single Family,Residential Housing,Project Completed,30100,24400,38700,43000,46450,Green Doors,512-469-9130,http://www.greendoors.org/,-97.7104858,30.26885049,"(30.2688504901787, -97.7104857964919)"
Pecan Springs Commons,5800 Sweeney Circle,78723,46,46,Multifamily,Residential Housing,Project Completed,30100,24400,38700,43000,46450,Green Doors,512-469-9130,http://www.greendoors.org/,-97.67995127,30.30492714,"(30.3049271405972, -97.679951265009)"
Pecan Springs Commons,5807 Sweeney Circle,78723,4,4,FourPlex,Residential Housing,Project Completed,30100,24400,38700,43000,46450,Green Doors,512-469-9130,http://www.greendoors.org/,-97.67902669,30.30515003,"(30.3051500320123, -97.679026690365)"
Pecan Springs Commons,5809 Sweeney Circle,78723,4,4,FourPlex,Residential Housing,Project Completed,30100,24400,38700,43000,46450,Green Doors,512-469-9130,http://www.greendoors.org/,-97.67907638,30.30536009,"(30.3053600903234, -97.6790763842193)"
Pecan Springs Commons,5802 Sweeney Circle,78723,4,4,FourPlex,Residential Housing,Project Completed,30100,24400,38700,43000,46450,Green Doors,512-469-9130,http://www.greendoors.org/,-97.67995095,30.30511141,"(30.3051114099162, -97.6799509532124)"
Pecan Springs Commons,5804 Sweeney Circle,78723,4,4,FourPlex,Residential Housing,Project Completed,30100,24400,38700,43000,46450,Green Doors,512-469-9130,http://www.greendoors.org/,-97.67984055,30.3052934,"(30.3052934003297, -97.6798405537649)"
Pecan Springs Commons,5805 Sweeney Circle,78723,4,4,FourPlex,Residential Housing,Project Completed,30100,24400,38700,43000,46450,Green Doors,512-469-9130,http://www.greendoors.org/,-97.67900608,30.30489107,"(30.3048910689532, -97.6790060774304)"
Pecan Springs Commons,5811 Sweeney Circle,78723,4,4,FourPlex,Residential Housing,Project Completed,30100,24400,38700,43000,46450,Green Doors,512-469-9130,http://www.greendoors.org/,-97.67891099,30.3055822,"(30.3055821970179, -97.6789109927531)"
Treaty Oaks,3700 Manchaca Road,78704,47,47,Multifamily,Residential Housing,Project Completed,30100,24400,38700,43000,46450,Green Doors,512-469-9130,http://www.greendoors.org/,-97.78439421,30.23658891,"(30.2365889139842, -97.7843942141951)"
Pecan Springs Commons,5803 Sweeney Circle,78723,4,4,FourPlex,Residential Housing,Project Completed,30100,24400,38700,43000,46450,Green Doors,512-469-9130,http://www.greendoors.org/,-97.67916116,30.30478426,"(30.3047842649745, -97.6791611643279)"
Pecan Springs Commons,2907 Sweeney Lane,78723,4,4,FourPlex,Residential Housing,Project Completed,30100,24400,38700,43000,46450,Green Doors,512-469-9130,http://www.greendoors.org/,-97.67886233,30.30573796,"(30.3057379612672, -97.6788623309976)"
Pecan Springs Commons,5801 Sweeney Circle,78723,4,4,FourPlex,Residential Housing,Project Completed,30100,24400,38700,43000,46450,Green Doors,512-469-9130,http://www.greendoors.org/,-97.67955792,30.30476498,"(30.3047649759407, -97.6795579168422)"
The Super Co-op,1905 Nueces Street,78705,50,50,Multifamily,Student Housing,Project Completed,30100,24400,38700,43000,46450,The College Houses,512-476-5678,https://collegehouses.org/listings/nueces/,-97.74383608,30.28301798,"(30.283017984191, -97.743836076894)"
Franklin Gardens,3522 E Martin Luther King Jr Boulevard,78723,22,22,Multifamily,Senior Housing,Project Completed,30100,24400,38700,43000,46450,PRAK Property Management,512-524-0547,http://www.prakpropertymanagement.com/franklin-gardens.html,-97.6972034,30.28413274,"(30.2841327389135, -97.6972033990871)"
Fort Branch Landing,5841 Techni Center Drive,78721,250,250,Multifamily,Residential Housing,Project Completed,36120,41280,46440,51600,55740,Lincoln Property Company,512-607-5459,http://www.livefortbranchattrumanslanding.com/,-97.66646717,30.27772032,"(30.2777203215007, -97.66646716561)"
2412 Bryan Street,2412 Bryan Street,78702,1,1,Single Family,Residential Housing,Project Completed,36120,41280,46440,51600,55740,Blackshear Neighborhood Development Corportation,512-476-2222,,-97.71634938,30.26709461,"(30.2670946060283, -97.7163493772762)"
1116 Harvard Street,1116 Harvard Street,78702,1,1,Single Family,Residential Housing,Project Completed,36120,41280,46440,51600,55740,Blackshear Neighborhood Development Corportation,512-476-2222,,-97.71623872,30.26723972,"(30.2672397186309, -97.7162387220264)"
2503 E 9th Steet,2503 E 9th Steet,78702,1,1,Single Family,Residential Housing,Project Completed,18100,20650,23250,25800,27900,Blackshear Neighborhood Development Corportation,512-476-2222,,-97.71430575,30.26480387,"(30.2648038720975, -97.7143057513509)"
1905 E 9th Street,1905 E 9th Street,78702,1,1,Single Family,Residential Housing,Project Completed,30100,24400,38700,43000,46450,Blackshear Neighborhood Development Corportation,512-476-2222,,-97.72100129,30.26391813,"(30.2639181308329, -97.7210012928342)"
1705 Rosewood Avenue,1705 Rosewood Avenue,78702,2,2,Duplex,Residential Housing,Project Completed,30100,24400,38700,43000,46450,Blackshear Neighborhood Development Corportation,512-476-2222,,-97.72613994,30.26921179,"(30.2692117855035, -97.726139936)"
2102 Chicon Street,2102 Chicon Street,78722,1,1,Single Family,Residential Housing,Project Completed,36120,41280,46440,51600,55740,Blackland Community Development Corporation,512-220-8751,https://www.blacklandcdc.org/housing/,-97.7219492,30.2821393,"(30.2821393008315, -97.7219492022444)"
1700 Martin Luther King Jr Boulevard,1700 Martin Luther King Jr Boulevard,78722,2,2,Duplex,Residential Housing,Project Completed,36120,41280,46440,51600,55740,Blackland Community Development Corporation,512-220-8751,https://www.blacklandcdc.org/,-97.723113,30.27991322,"(30.279913222, -97.7231130036985)"
1804 Martin Luther King Jr Boulevard,1804 Martin Luther King Jr Boulevard,78722,1,1,Single Family,Residential Housing,Project Completed,30100,24400,38700,43000,46450,Blackland Community Development Corporation,512-220-8751,https://www.blacklandcdc.org/,-97.72184558,30.28002492,"(30.2800249156769, -97.72184557843)"
2113 Salina Street,2113 Salina Street,78722,1,1,Single Family,Residential Housing,Project Completed,30100,24400,38700,43000,46450,Blackland Community Development Corporation,512-220-8751,https://www.blacklandcdc.org/housing/,-97.72262411,30.28253519,"(30.2825351864182, -97.7226241091127)"
1803 E 22nd Steet,1803 E 22nd Steet,78722,2,2,Duplex,Residential Housing,Project Completed,48200,55050,61950,68800,74350,Blackland Community Development Corporation,512-220-8751,https://www.blacklandcdc.org/,-97.72241774,30.2825633,"(30.2825632988123, -97.7224177428861)"
2111 Salina Street,2111 Salina Street,78722,1,1,Single Family,Residential Housing,Project Completed,48200,55050,61950,68800,74350,Blackland Community Development Corporation,512-220-8751,https://www.blacklandcdc.org/housing/,-97.72259173,30.28239544,"(30.2823954412867, -97.7225917302666)"
2107 Salina Street,2107 Salina Street,78722,1,1,Single Family,Residential Housing,Project Completed,48200,55050,61950,68800,74350,Blackland Community Development Corporation,512-220-8751,https://www.blacklandcdc.org/housing/,-97.72255917,30.28208674,"(30.2820867380412, -97.7225591677977)"
2009 Salina Street,2009 Salina Street,78722,6,6,Multifamily,Residential Housing,Project Completed,36120,41280,46440,51600,55740,Blackland Community Development Corporation,512-220-8751,https://www.blacklandcdc.org/housing/,-97.72228345,30.28139533,"(30.2813953297002, -97.7222834520494)"
2110 Salina Street,2110 Salina Street,78722,1,1,Single Family,Residential Housing,Project Completed,36120,41280,46440,51600,55740,Blackland Community Development Corporation,512-220-8751,https://www.blacklandcdc.org/housing/,-97.72303482,30.28236494,"(30.2823649447706, -97.7230348223138)"
1803 E 20th Street,1803 E 20th Street,78722,8,8,Multifamily,Residential Housing,Project Completed,30100,24400,38700,43000,46450,Blackland Community Development Corporation,512-220-8751,https://www.blacklandcdc.org/housing/,-97.7219761,30.28050064,"(30.2805006367646, -97.7219761033775)"
2106 Chestnut Avenue,2106 Chestnut Avenue,78722,1,1,Single Family,Residential Housing,Project Completed,30100,24400,38700,43000,46450,Blackland Community Development Corporation,512-220-8751,https://www.blacklandcdc.org/housing/,-97.71805463,30.2830115,"(30.2830115040421, -97.7180546305809)"
Austin Children's Shelter,4800 Manor Road,78723,28,28,Multifamily,Children's Shelter,Project Completed,30100,24400,38700,43000,46450,Austin's Children Shelter,512-804-3303,http://www.safeaustin.org/austinchildrensshelter/,-97.68906793,30.29563891,"(30.2956389135677, -97.689067926575)"
Austin Travis County MHMR,6222 N Lamar Boulevard,78757,37,37,Multifamily,Transitional Housing,Project Completed,30100,24400,38700,43000,46450,Austin Travis County Integral Care,512-804-3303,http://www.integralcare.org/en/home/,-97.72350971,30.33122925,"(30.3312292507617, -97.7235097123333)"
Austin Travis County MHMR,403 E 15th Street,78721,24,24,Multifamily,Transitional Housing,Project Completed,30100,24400,38700,43000,46450,Austin Travis County Integral Care,512-804-3526,http://www.integralcare.org/en/home/,-97.73574557,30.27559883,"(30.2755988306276, -97.7357455695742)"
Carol's House,1805 Heatherglen Lane,78758,1,1,Single Family,Accessible Housing,Project Completed,30100,24400,38700,43000,46450,Accessible Housing Austin!,512-640-7781,http://ahaustin.org/,-97.70164239,30.39517141,"(30.3951714095675, -97.7016423888114)"
Palms at North Lamar,8600 N Lamar Boulevard,78753,476,215,Multifamily,Residential Housing,Project Completed,30100,24400,38700,43000,46450,TMG Management,512-837-5556,http://www.tmgpalms.com/,-97.70433045,30.35465331,"(30.3546533088105, -97.704330445112)"
Legacy Apartments,1340 Lamar Square Drive,78704,40,40,Multifamily,Residential Housing,Project Completed,48200,55050,61950,68800,74350,Mary Lee Foundation,512-443-5777,http://www.maryleefoundation.org/programs-and-services/affordable-housing/,-97.76420276,30.25473096,"(30.2547309646977, -97.7642027614895)"
City View at the Park,2000 Woodward Street,78741,70,68,Multifamily,Senior Housing,Project Completed,36120,41280,46440,51600,55740,Capstone Management,512-804-5296,https://capstonemanagement.com/,-97.74342133,30.21848555,"(30.2184855516517, -97.7434213272554)"
Lyons Gardens,2720 Lyons Road,78702,54,53,Multifamily,Residential Housing,Project Completed,30100,24400,38700,43000,46450,Alpha Barnes Real Estate Services,512-236-1781,http://www.lyonsgardens.com/,-97.70918934,30.26457934,"(30.2645793410541, -97.7091893422922)"
Marshall Apartments,1401 E 12th Street,78702,100,100,Multifamily,Residential Housing,Project Completed,30100,24400,38700,43000,46450,LEDIC Realty Company,334-472-6935,http://www.marshall-apartments.com/,-97.72483049,30.27270376,"(30.2727037607574, -97.7248304939111)"
Elm Ridge Apartments,1161 Harvey Street,78702,130,130,Multifamily,Residential Housing,Project Completed,30100,24400,38700,43000,46450,LEDIC Realty Company,512-473-8955,http://www.elmridgeapartments.com/,-97.70241945,30.27488959,"(30.2748895873048, -97.7024194499343)"
Allandale Condos,7685 Northcross Drive,78757,10,10,Multifamily,Residential Housing,Project Completed,30100,24400,38700,43000,46450,Platinum Realty,512-925-5392,https://www.platinumrealtyaustin.com/,-97.73569365,30.35421938,"(30.3542193816473, -97.7356936462426)"
Saint Louise House II,2104 Berkett Drive,78745,22,22,Multifamily,Transitional Housing,Project Completed,30100,24400,38700,43000,46450,Saint Louise House,512-326-2774,http://saintlouisehouse.org/,-97.8039315,30.21093638,"(30.2109363836519, -97.8039314961919)"
Manor House,5905 Manor Road,78723,11,11,Multifamily,Residential Housing,Project Completed,30100,24400,38700,43000,46450,Volunteers of America,512-928-2015,https://www.voa.org/housing_properties/manor-house-apartments,-97.67940861,30.30660038,"(30.3066003795593, -97.6794086087417)"
Oak Springs Villas,3001 Oak Springs Drive,78702,56,56,Multifamily,Residential Housing,Project Completed,30100,24400,38700,43000,46450,Volunteers of America,512-928-2015,https://www.voa.org/housing_properties/oak-springs-villas,-97.70126065,30.27269913,"(30.2726991337306, -97.7012606512304)"
Spring Terrace Apartments,7101 N IH-35,78752,140,140,Multifamily,Residential Housing,Project Completed,30100,24400,38700,43000,46450,Foundation Communities,512-492-8980,http://foundcom.org/housing/our-austin-communities/spring-terrace/,-97.70318001,30.33149071,"(30.3314907138636, -97.7031800065299)"
1100 E 10th Street,1100 E 10th Street,78702,1,1,Single Family,Residential Housing,Project Completed,48200,55050,61950,68800,74350,Guadalupe Neighborhood Development Corporation,512-479-6275,http://www.guadalupendc.org,-97.72934019,30.26843907,"(30.2684390683833, -97.7293401878146)"
1112 E 10th Street,1112 E 10th Street,78702,1,1,Single Family,Residential Housing,Project Completed,48200,55050,61950,68800,74350,Guadalupe Neighborhood Development Corporation,512-479-6275,http://www.guadalupendc.org,-97.72826475,30.26820529,"(30.2682052936843, -97.7282647529115)"
1002 Navasota,1002 Navasota,78702,1,1,Single Family,Residential Housing,Project Completed,48200,55050,61950,68800,74350,Guadalupe Neighborhood Development Corporation,512-479-6275,http://www.guadalupendc.org,-97.72672043,30.26771857,"(30.2677185659426, -97.7267204286374)"
1007 Waller Street,1007 Waller Street,78702,1,1,Single Family,Residential Housing,Project Completed,48200,55050,61950,68800,74350,Guadalupe Neighborhood Development Corporation,512-479-6275,http://www.guadalupendc.org,-97.7292821,30.26864625,"(30.2686462542793, -97.7292820964329)"
110 Chicon Street,110 Chicon Street,78702,2,2,Single Family,Residential Housing,Project Completed,48200,55050,61950,68800,74350,Guadalupe Neighborhood Development Corporation,512-479-6275,http://www.guadalupendc.org,-97.72453329,30.25794518,"(30.2579451814521, -97.7245332918763)"
La Vista de Guadalupe,813 E 8th Street,78702,22,22,Multifamily,Residential Housing,Project Completed,36120,41280,46440,51600,55740,Guadalupe Neighborhood Development Corporation,512-479-6275,http://www.guadalupendc.org/,-97.73300722,30.26711898,"(30.2671189761308, -97.7330072179264)"
SOL,5908 Ventus Street,78721,1,1,Single Family,Residential Housing,Project Completed,36120,41280,46440,51600,55740,Guadalupe Neighborhood Development Corporation,512-479-6275,http://www.guadalupendc.org/,-97.6847886,30.25864212,"(30.2586421166223, -97.6847885966937)"
SOL,5921 Ventus Street,78721,1,1,Single Family,Residential Housing,Project Completed,36120,41280,46440,51600,55740,Guadalupe Neighborhood Development Corporation,512-479-6275,http://www.guadalupendc.org/,-97.68465943,30.25812818,"(30.2581281793287, -97.6846594269009)"
SOL,5916 Lux Street,78721,1,1,Single Family,Residential Housing,Project Completed,36120,41280,46440,51600,55740,Guadalupe Neighborhood Development Corporation,512-479-6275,http://www.guadalupendc.org/,-97.68419071,30.25913316,"(30.2591331562492, -97.6841907066182)"
SOL,5929 Lux Street,78721,1,1,Single Family,Residential Housing,Project Completed,36120,41280,46440,51600,55740,Guadalupe Neighborhood Development Corporation,512-479-6275,http://www.guadalupendc.org/,-97.68412944,30.25863047,"(30.2586304687906, -97.684129443253)"
SOL,1129 Altum Street,78702,2,2,Duplex,Residential Housing,Project Completed,36120,41280,46440,51600,55740,Guadalupe Neighborhood Development Corporation,512-479-6275,http://www.guadalupendc.org/,-97.71731982,30.27039712,"(30.2703971161874, -97.7173198185887)"
SOL,1133 Altum Street,78702,2,2,Duplex,Residential Housing,Project Completed,36120,41280,46440,51600,55740,Guadalupe Neighborhood Development Corporation,512-479-6275,http://www.guadalupendc.org/,-97.71731982,30.27039712,"(30.2703971161874, -97.7173198185887)"
7314 Meador Avenue,7314 Meador Avenue,78752,2,2,Duplex,Residential Housing,Project Completed,30100,24400,38700,43000,46450,,,,-97.69525635,30.33148715,"(30.3314871526481, -97.695256354235)"
Meadowood Apartments,9601 Middle Fiskville Road,78758,200,180,Multifamily,Residential Housing,Project Completed,48200,55050,61950,68800,74350,,,,-97.68500093,30.35940944,"(30.3594094449148, -97.6850009341505)"
Retreat at North Bluff,6212 Crow Lane,78745,240,176,Multifamily,Residential Housing,Project Completed,48200,55050,61950,68800,74350,Merge Management,512-445-0404,http://www.retreatatnorthbluff.com/,-97.77253293,30.20067619,"(30.2006761915042, -97.7725329289596)"
9215 Kempler Drive,9215 Kempler Drive,78748,2,2,Duplex,Accessible Housing,Project Completed,18100,20650,23250,25800,27900,Accessible Housing Austin!,512-640-7781,http://ahaustin.org/aha-accessible-housing-austin/,-97.82150199,30.18065235,"(30.1806523476176, -97.8215019883972)"
2106 Chicon Street,2106 Chicon Street,78722,1,1,Single Family,Residential Housing,Project Completed,30100,24400,38700,43000,46450,Blackland Community Development Corporation,512-220-8751,https://www.blacklandcdc.org/housing/,-97.72201073,30.28241284,"(30.2824128398308, -97.72201072816)"
2004 Chicon Street,2004 Chicon Street,78722,2,2,Duplex,Residential Housing,Project Completed,30100,24400,38700,43000,46450,Blackland Community Development Corporation,512-220-8751,https://www.blacklandcdc.org/housing/,-97.72181588,30.28115196,"(30.2811519564407, -97.7218158797085)"
2112 E 8th Street,2112 E 8th Street,78702,1,1,Single Family,Residential Housing,Project Completed,30100,24400,38700,43000,46450,,512-834-0780,,-97.71818467,30.26281963,"(30.2628196288271, -97.718184673049)"
Skyline Terrace,1212 W Ben White Boulevard,78704,100,100,Multifamily,Residential Housing,Project Completed,30100,24400,38700,43000,46450,Foundation Communities,512-440-0300,http://foundcom.org/housing/our-austin-communities/skyline-terrace/,-97.77817812,30.22823613,"(30.2282361267838, -97.7781781202652)"
Homestead Oaks,3226 W Slaughter Lane,78748,140,126,Multifamily,Residential Housing,Project Completed,36120,41280,46440,51600,55740,Foundation Communities,512-610-2222,http://foundcom.org/housing/our-austin-communities/homestead-oaks-apartments/,-97.84472009,30.18153209,"(30.1815320898309, -97.8447200886847)"
Capital Studios,309 E 11th Street,78701,135,135,Multifamily,Residential Housing,Project Completed,30100,24400,38700,43000,46450,Foundation Communities,512-610-7977,http://foundcom.org/housing/our-austin-communities/capital-studios/,-97.73808578,30.27175218,"(30.2717521801568, -97.7380857836883)"
Bluebonnet Studios SRO,2301 S Lamar Boulevard,78704,107,107,Multifamily,Residential Housing,Project Completed,30100,24400,38700,43000,46450,Foundation Communities,512-617-4441,http://foundcom.org/housing/our-austin-communities/bluebonnet-studios/,-97.77551651,30.24698735,"(30.2469873500171, -97.7755165142672)"
Lakeline Station,13635 Rutledge Spur,78717,128,128,Multifamily,Residential Housing,Project Completed,36120,41280,46440,51600,55740,Foundation Communities,512-615-4750,http://foundcom.org/housing/our-austin-communities/lakeline-station-apartments/,-97.78034499,30.47625308,"(30.4762530810604, -97.7803449892326)"
Live Oak Trails,8500 US Highway 71 W,78735,58,58,Multifamily,Residential Housing,Project Completed,30100,24400,38700,43000,46450,Foundation Communities,512-610-2240,http://foundcom.org/housing/our-austin-communities/live-oak-trails-apartments/,-97.89008216,30.24855938,"(30.2485593811554, -97.8900821644269)"
Parkwest Condos,10616 Mellow Meadows Drive,78750,1,1,Single Family,Residential Housing,Project Completed,30100,24400,38700,43000,46450,Frameworks Community Development Corporation,512-386-1500,https://frameworkscdc.org/,-97.80172791,30.460423,"(30.4604230013685, -97.8017279083799)"
Edgecreek Condos,12166 Metric Boulevard,78758,2,2,Duplex,Residential Housing,Project Completed,30100,24400,38700,43000,46450,Frameworks Community Development Corporation,512-385-1500,https://frameworkscdc.org/,-97.69786173,30.40679119,"(30.4067911937569, -97.6978617266883)"
4904 West Wind Trail,4904 West Wind Trail,78745,4,3,FourPlex,Residential Housing,Project Completed,30100,24400,38700,43000,46450,Frameworks Community Development Corporation,512-385-1500,https://frameworkscdc.org/,-97.80338524,30.22744113,"(30.2274411258956, -97.8033852378787)"
4810 West Wind Trail,4810 West Wind Trail,78745,4,4,FourPlex,Residential Housing,Project Completed,30100,24400,38700,43000,46450,Frameworks Community Development Corporation,512-385-1500,https://frameworkscdc.org/,-97.80299658,30.2279505,"(30.2279505045048, -97.8029965848418)"
4902 West Wind Trail,4902 West Wind Trail,78745,4,1,FourPlex,Residential Housing,Project Completed,30100,24400,38700,43000,46450,Frameworks Community Development Corporation,512-385-1500,https://frameworkscdc.org/,-97.80327228,30.22764242,"(30.2276424167489, -97.8032722816043)"
The Works at Pleasant Valley,2800 Lyons Road,78702,45,45,Multifamily,Transitional Housing,Project Completed,30100,24400,38700,43000,46450,Lifeworks,512-735-2100,http://www.lifeworksaustin.org/housing/,-97.70740009,30.26397344,"(30.263973435801, -97.7074000922684)"
Lucero Apartments (formerly Oak Creek Village),2324 Wilson Street,78704,173,173,Multifamily,Residential Housing,Project Completed,36120,41280,46440,51600,55740,Dominium Management,512-538-1760,https://www.dominiumapartments.com/find-apartment/properties/texas/austin/lucero.html,-97.7562608,30.24222247,"(30.2422224737444, -97.7562607979531)"
Blunn Creek Apartments,607 Woodward Street,78704,280,252,Multifamily,Residential Housing,Project Completed,36120,41280,46440,51600,55740,,512-220-4748,,-97.75296898,30.225767,"(30.2257669971859, -97.7529689819867)"
Riverside Meadows Apartments,1601 Montopolis Drive,78741,240,240,Multifamily,Residential Housing,Project Completed,36120,41280,46440,51600,55740,,512-385-9400,,-97.70116657,30.2277183,"(30.2277182996685, -97.7011665701446)"
Stony Creek Apartments,4911 Manchaca Road,78745,132,119,Multifamily,Residential Housing,Project Completed,48200,55050,61950,68800,74350,M3 Multifamily,512-444-5700,https://www.rentstonycreek.com/,-97.7926596,30.22196473,"(30.2219647316627, -97.7926596045586)"
Wilshire West (fka Princeton Apartments.),4411 Airport Boulevard,78745,90,81,Multifamily,Residential Housing,Project Completed,48200,55050,61950,68800,74350,M3 Multifamily,512-444-5700,http://www.m3multifamily.com/find-an-apartment/,-97.71337403,30.30116934,"(30.3011693419415, -97.7133740292986)"
Trails at Vintage Creek (fka Village Green Apartments),7224 Northeast Drive,78723,200,180,Multifamily,Residential Housing,Project Completed,48200,55050,61950,68800,74350,Foundation Communities,512-929-9161,http://foundcom.org/housing/our-austin-communities/trails-at-the-vintage-creek-apartments/,-97.68008999,30.32161385,"(30.3216138528759, -97.6800899933422)"
Ivy Condos - Acq of 10 Units (2/5/13),3204 Manchaca Road,78704,10,10,Multifamily,Residential Housing,Project Completed,30100,24400,38700,43000,46450,Easter Seals of Central Texas,512-615-6820,http://www.easterseals.com/centraltx/our-programs/adult-services/community-housing-services/,-97.78266876,30.24027574,"(30.2402757402636, -97.7826687601118)"
Summit Oaks,11607 Sierra Nevada,78759,24,24,Multifamily,Residential Housing,Project Completed,36120,41280,46440,51600,55740,Housing Authority of the City of Austin,512-477-4488,http://www.hatctx.com/summit-oaks/,-97.75509,30.421089,"(30.421089, -97.75509)"
St. James Apartments,5514 Roosevelt Avenue,78756,9,2,Multifamily,Residential Housing,Project Completed,48200,55050,61950,68800,74350,Burlington Ventures,512-476-0111,http://burlingtonventures.com/saint-james-5514-roosevelt/,-97.73296995,30.32693838,"(30.3269383823952, -97.7329699500947)"
Lakeside Engineering - Duplexes,1123 Walton Lane,78721,2,1,Duplex,Residential Housing,Project Completed,48200,55050,61950,68800,74350,,,,-97.687279,30.259234,"(30.259234, -97.687279)"
Lakeside Engineering - Duplexes,1125 Walton Lane,78721,4,2,Duplex,Residential Housing,Project Completed,48200,55050,61950,68800,74350,,,,-97.687285,30.259463,"(30.259463, -97.687285)"
The Point at Ben White,6934 E Ben White Boulevard,78741,250,250,Multifamily,Residential Housing,Project Completed,48200,55050,61950,68800,74350,Capstone Management,512-222-5658,http://thepointeatbenwhite.com/,-97.70358301,30.21631803,"(30.2163180282958, -97.7035830097557)"
Villages at Ben White,7000 E Ben White Boulevard,78741,183,183,Multifamily,Senior Housing,Project Completed,36120,41280,46440,51600,55740,Capstone Management,512-222-5659,http://villagesatbenwhite.com/,-97.70117385,30.21586125,"(30.2158612511363, -97.701173845317)"
Heights on Parmer,1500 Parmer Lane,78727,252,252,Multifamily,Residential Housing,Project Completed,36120,41280,46440,51600,55740,Pedcor Management Corporation,512-7179112,http://www.pedcormanagement.com/Home?ID=270,-97.65173237,30.39047199,"(30.3904719905596, -97.6517323670586)"
William Cannon Apartments,2112 William Cannon Drive,78744,252,252,Multifamily,Residential Housing,Project Completed,36120,41280,46440,51600,55740,Pedcor Management Company,512-792-3534,http://www.pedcormanagement.com/Home?ID=271,-97.7613179,30.18786679,"(30.1878667909073, -97.7613178962303)"
The Paddock at Norwood,1044 Norwood Park Boulevard,78753,228,228,Multifamily,Residential Housing,Project Completed,36120,41280,46440,51600,55740,Capstone Management,512-535-5748,http://paddockatnorwood.com/,-97.69155233,30.3365467,"(30.3365467031889, -97.6915523283137)"
ThinkEast Apartments,1143 Shady Lane,78721,182,182,Multifamily,Residential Housing,Building Permit Issued,36120,41280,46440,51600,55740,Atlantic Pacific Management,512-386-5711,https://www.thinkeastapartments.com/,-97.690776,30.2626,"(30.2626, -97.690776)"
1141 Shady Lane Mixed Use,1141 Shady Lane,78721,3,2,Multifamily,Residential Housing,Building Permit Issued,48200,55050,61950,68800,74350,,,,-97.690803,30.262632,"(30.262632, -97.690803)"
Thornton Flats,2501 Thornton Road,78704,105,11,Multifamily,Residential Housing,Project Completed,36120,41280,46440,51600,55740,PSW Community Management,512-298-4327,http://www.thorntonflats.com/,-97.77277233,30.24309617,"(30.2430961658273, -97.7727723283092)"
Springdale Apartments,5605 Springdale Road,78723,292,292,Multifamily,Residential Housing,Project Completed,36120,41280,46440,51600,55740,Lincoln Property Company,512-354-4427,https://www.reserveatspringdaleapts.com/,-97.67388989,30.29898107,"(30.2989810707065, -97.6738898931607)"
Housing First Oak Springs,3000 Oak Springs Drive,78702,50,50,Multifamily,Transitional Housing,Building Permit Issued,30100,24400,38700,43000,46450,Austin Travis County Integral Care,512-804-3526,http://housingfirstatx.org/,-97.70056603,30.27352219,"(30.2735221853269, -97.7005660266436)"
10th Street Alley Flat,1817 W 10th Street,78703,1,1,ADU,Residential Housing,Project Completed,30100,24400,38700,43000,46450,Clarksville Community Development Corporation,512-323-6762,http://www.clarksvillecdc.org,-97.7651196,30.28133403,"(30.2813340253543, -97.7651195970221)"
Harris Branch Senior Apartments,12433 Dessau Road,78754,216,216,Multifamily,Senior Housing,Project Completed,36120,41280,46440,51600,55740,Capstone Management,877-228-2573,https://harrisbranchseniors.com/,-97.64488191,30.38880659,"(30.3888065941242, -97.6448819144268)"
Urban Oaks,6725 Circle S Road,78745,194,194,Multifamily,Residential Housing,Project Completed,36120,41280,46440,51600,55740,Lincoln Property Company,512-524-0621,https://www.urbanoaksapts.com/,-97.77785641,30.19084454,"(30.1908445370978, -97.7778564092322)"
LaMadrid Apartments,11320 Manchaca Road,78748,95,83,Multifamily,Residential Housing,Project Completed,36120,41280,46440,51600,55740,Accolade Property Management,512-590-9423,http://www.lamadridapartments.com/,-97.82835765,30.16590014,"(30.1659001366289, -97.8283576485475)"
Cardinal Point Apartments,11015 Four Points Drive,78730,120,120,Multifamily,Residential Housing,Project Completed,36120,41280,46440,51600,55740,Foundation Communities,512-381-4599,http://foundcom.org/housing/our-austin-communities/cardinal-point/,-97.84577071,30.39907683,"(30.3990768259772, -97.8457707088684)"
SAMdorosa,6700 Manchaca Road,78745,14,2,Multifamily,Residential Housing,Project Completed,48200,55050,61950,68800,74350,SAMdorosa Communities,512-653-6287,http://b-austin.com/,-97.80686954,30.20638764,"(30.2063876421874, -97.8068695422754)"
Wildflower Terrace,3801 Berkman Drive,78723,201,171,Multifamily,Residential Housing,Project Completed,36120,41280,46440,51600,55740,DMA Companies,512-843-3801,https://dmawildflower.com/,-97.6984403,30.2909045,"(30.2909045, -97.6984403)"
Texan West Campus,2616 Salado Street,78705,62,6,Multifamily,Student Housing,Project Completed,48200,55050,61950,68800,74350,American Campus Communities,512-478-9811,https://www.americancampus.com/student-apartments/tx/austin/texan-and-vintage-west-campus,-97.745467,30.292272,"(30.292272, -97.745467)"
Quarters at Sterling,709 W 22nd Street,78705,100,10,Multifamily,Student Housing,Project Completed,48200,55050,61950,68800,74350,Quarters at Campus,512-310-7627,http://quartersoncampus2.businesscatalyst.com/sterling.html,-97.7459644,30.28498621,"(30.2849862122157, -97.7459643960633)"
Rio West Student Living,2704 Rio Grande Street,78705,76,8,Multifamily,Student Housing,Project Completed,48200,55050,61950,68800,74350,Coastal Ridge Real Estate,512-236-1903,https://rioweststudentliving.com/,-97.74454388,30.29296103,"(30.2929610272008, -97.7445438848349)"
Quarters at Cameron,2707 Rio Grande Street,78705,64,6,Multifamily,Student Housing,Project Completed,48200,55050,61950,68800,74350,Quarters at Campus,512-310-7627,http://quartersoncampus2.businesscatalyst.com/cameron.html,-97.74391417,30.29239274,"(30.292392736346, -97.7439141695708)"
Quarters at Montgomery,2700 Nueces Street,78705,88,9,Multifamily,Student Housing,Project Completed,48200,55050,61950,68800,74350,Quarters at Campus,512-310-7627,http://quartersoncampus2.businesscatalyst.com/,-97.74320662,30.2920704,"(30.2920704003102, -97.7432066152494)"
Texan Tower,2505 San Gabriel Street,78705,74,7,Multifamily,Student Housing,Project Completed,48200,55050,61950,68800,74350,Texan Properties,512-476-1976,http://www.texantower.com/,-97.74739903,30.2901088,"(30.2901088028752, -97.7473990250448)"
Block at Pearl - North,901 W 22nd Street,78705,47,5,Multifamily,Student Housing,Project Completed,48200,55050,61950,68800,74350,American Campus Communities,512-478-9811,http://www.theblockwestcampus.com/,-97.74663415,30.28606359,"(30.2860635924108, -97.7466341483156)"
Block on Pearl South,900 W 22nd Street,78705,49,5,Multifamily,Student Housing,Project Completed,48200,55050,61950,68800,74350,American Campus Communities,512-478-9811,http://www.theblockwestcampus.com/p/student_housing/pearl_south_mobile/austin-tx-78705/the-block-on-campus-6569,-97.74670947,30.28562987,"(30.2856298709677, -97.7467094702945)"
Block on 28th,701 W 28th Street,78705,100,10,Multifamily,Student Housing,Project Completed,48200,55050,61950,68800,74350,American Campus Communities,512-478-9811,http://www.theblockwestcampus.com/,-97.74463321,30.29327736,"(30.2932773608244, -97.7446332063935)"
Texan Shoal Creek,2502 Leon Street,78705,79,8,Multifamily,Student Housing,Project Completed,48200,55050,61950,68800,74350,Texan Properties,512-476-1976,http://www.texanproperties.net/,-97.74945961,30.28985058,"(30.2898505758531, -97.7494596108765)"
Texan at Pearl,2515 Pearl Street,78705,81,8,Multifamily,Student Housing,Project Completed,48200,55050,61950,68800,74350,Texan Properties,512-476-1976,http://www.texanproperties.net/tp/,-97.74625073,30.29064945,"(30.2906494489182, -97.7462507347869)"
Quarters at Grayson,714 W 22nd Street,78705,100,10,Multifamily,Student Housing,Project Completed,48200,55050,61950,68800,74350,Quarters on Campus,512-531-0123,http://quartersoncampus2.businesscatalyst.com/grayson.html,-97.74630853,30.28550747,"(30.2855074737524, -97.7463085316981)"
Quarters at Nueces House,2300 Nueces Street,78705,232,23,Multifamily,Student Housing,Project Completed,48200,55050,61950,68800,74350,Quarters at Campus,512-531-0123,http://quartersoncampus2.businesscatalyst.com/nueces.html,-97.74390448,30.28679177,"(30.2867917657679, -97.7439044793423)"
Karnes House (fka University Garden Apartments),2222 Rio Grande Street,78705,12,1,Multifamily,Student Housing,Project Completed,48200,55050,61950,68800,74350,Quarters at Campus,512-531-0123,http://quartersoncampus2.businesscatalyst.com,-97.74501122,30.28685336,"(30.2868533633147, -97.7450112172395)"
Jefferson at West Campus,600 W 26th Street,78705,364,36,Multifamily,Student Housing,Project Completed,48200,55050,61950,68800,74350,American Campus Communities,512-478-9811,https://www.americancampus.com/student-apartments/tx/austin/26-west,-97.74346368,30.29111022,"(30.2911102238676, -97.7434636763484)"
Block on Leon,2510  Leon Street,78705,138,28,Multifamily,Student Housing,Project Completed,48200,55050,61950,68800,74350,American Campus Communities,512-478-9811,http://www.theblockwestcampus.com/,-97.7494449,30.29051861,"(30.2905186122491, -97.7494448965295)"
Block on 25th West,2501 Pearl Street,78705,80,8,Multifamily,Student Housing,Project Completed,48200,55050,61950,68800,74350,American Campus Communities,512-478-9811,http://www.theblockwestcampus.com/p/student_housing/25_west_mobile/austin-tx-78705/the-block-on-campus-6569,-97.7462254,30.28958455,"(30.2895845545353, -97.7462254006299)"
Block on 25th East,702 W 25th Street,78705,87,9,Multifamily,Student Housing,Project Completed,48200,55050,61950,68800,74350,American Campus Communities,512-478-9811,http://www.theblockwestcampus.com/,-97.74515909,30.28957953,"(30.2895795271056, -97.7451590885061)"
Block on Rio Grande,2819 Rio Grande Street,78705,97,20,Multifamily,Student Housing,Project Completed,48200,55050,61950,68800,74350,American Campus Communities,512-478-9811,http://www.theblockwestcampus.com/,-97.74366717,30.29507208,"(30.2950720832625, -97.7436671748325)"
Block on 23rd,2222 Pearl Street,78705,99,10,Multifamily,Student Housing,Project Completed,48200,55050,61950,68800,74350,American Campus Communities,512-478-9811,http://www.theblockwestcampus.com/,-97.74671373,30.28706135,"(30.2870613453943, -97.7467137347619)"
Galileo,910 W 25th Street,78705,47,5,Multifamily,Student Housing,Project Completed,48200,55050,61950,68800,74350,Alex Ray,512-522-6787,http://galileoat25th.com/,-97.74734934,30.28963999,"(30.2896399945585, -97.7473493413822)"
21 Rio,2101 Rio Grande Street,78705,299,30,Multifamily,Student Housing,Project Completed,48200,55050,61950,68800,74350,CA Ventures,512-391-1991,https://www.21rio.com/,-97.74474277,30.2842162,"(30.2842161992591, -97.7447427658064)"
904-908 W. 22 1/2 Street,904 W 22nd Street,78705,62,6,Multifamily,Student Housing,Project Completed,48200,55050,61950,68800,74350,American Campus Communities,512-478-9811,https://www.americancampus.com/student-apartments/tx/austin/texan-and-vintage-west-campus,-97.74701685,30.28561668,"(30.2856166846052, -97.7470168462638)"
Grand Marc at 26th,510 W 26th Street,78705,138,14,Multifamily,Student Housing,Project Completed,48200,55050,61950,68800,74350,Peak Campus,512-501-3461,https://www.grandmarcaustin.com/grandmarc-austin-austin-tx/,-97.74257135,30.29099868,"(30.2909986770952, -97.7425713474858)"
2608 Salado Multifamily,2608 Salado Street,78705,7,1,Multifamily,Student Housing,Project Completed,48200,55050,61950,68800,74350,Lynx Property Services,512-326-2722,https://www.saladoliving.com/property/property-details/,-97.74552828,30.29161949,"(30.2916194866166, -97.7455282802996)"
Ellora Apartments,908 W 21st Street,78705,23,2,Multifamily,Student Housing,Project Completed,36120,41280,46440,51600,55740,Ana Santos,512-808-7292,https://www.westcampuselloras.com/,-97.74746589,30.28498076,"(30.2849807633777, -97.7474658943748)"
2401 Longview,2401 Longview Street,78705,70,7,Multifamily,Student Housing,Project Completed,48200,55050,61950,68800,74350,San Miguel Management,512-992-1206,https://2401longview.com/,-97.75048641,30.28868985,"(30.2886898539304, -97.750486412531)"
Axis West campus,2505 Longview Street,78705,167,34,Multifamily,Student Housing,Project Completed,48200,55050,61950,68800,74350,TPCO,512-961-8999,http://www.axiswestcampus.com/index,-97.75023504,30.29006698,"(30.2900669818974, -97.7502350368063)"
The Quarters at Bandera House,2215 Rio Grande Street,78705,155,16,Multifamily,Student Housing,Project Completed,48200,55050,61950,68800,74350,San Miguel Management,512-400-3095,https://www.2215west.com/,-97.74461305,30.28645112,"(30.2864511210888, -97.7446130450185)"
21 Pearl,911 W 21st Street,78705,136,28,Multifamily,Student Housing,Project Completed,48200,55050,61950,68800,74350,Lee Properties,512-473-0808,http://21pearlwestcampus.com/,-97.74746147,30.28468462,"(30.2846846204242, -97.7474614704892)"
Woolridge Hall,2400 Nueces Street,78705,304,31,Multifamily,Student Housing,Project Completed,48200,55050,61950,68800,74350,EDR Trust,512-651-1139,http://www.2400nuecesapartments.com/,-97.74343837,30.2882158,"(30.2882157993576, -97.7434383723285)"
Callaway House Austin,505 W 22nd Street,78705,219,22,Multifamily,Student Housing,Project Completed,48200,55050,61950,68800,74350,American Campus Communities,512-478-9811,https://www.americancampus.com/student-apartments/tx/austin/the-callaway-house-austin,-97.74342091,30.28494112,"(30.2849411232767, -97.7434209056653)"
Regents at 26th,900 W 26th Street,78705,139,14,Multifamily,Student Housing,Project Completed,48200,55050,61950,68800,74350,CWS,512-592-5015,https://www.cwsapartments.com/apartments/tx/austin/regents-west-at-26th/,-97.74649449,30.29099695,"(30.29099695188, -97.7464944873157)"
Regents at 24th,2401 San Gabriel Street,78705,93,9,Multifamily,Student Housing,Project Completed,48200,55050,61950,68800,74350,CWS,512-592-5015,https://www.cwsapartments.com/apartments/tx/austin/regents-west-at-24th/,-97.74745612,30.28842124,"(30.2884212444376, -97.7474561212131)"
Villas on 26th,800 W 26th Street,78705,182,18,Multifamily,Student Housing,Project Completed,36120,41280,46440,51600,55740,Lauren Levy,512-474-2600,https://www.villason26.com/,-97.74556505,30.2909574,"(30.2909573960403, -97.7455650474619)"
Texan 26th,1009 W 26th Street,78705,206,21,Multifamily,Student Housing,Project Completed,36120,41280,46440,51600,55740,CA Ventures,512-391-1991,https://www.texan26.com/,-97.7481753,30.29058927,"(30.2905892714381, -97.7481752993404)"
Crest at Pearl,706 Martin Luther King Jr Bouelvard,78705,141,28,Multifamily,Student Housing,Project Completed,48200,55050,61950,68800,74350,American Campus Communities,512-478-9811,https://www.americancampus.com/student-apartments/tx/austin/crest-at-pearl,-97.74618319,30.28329642,"(30.2832964183937, -97.746183194574)"
Ruth R. Schulze House,915 W 22nd Street,78705,26,8,Multifamily,Student Housing,Building Permit Issued,30100,24400,38700,43000,46450,,,,-97.74790896,30.28523998,"(30.2852399837824, -97.7479089606178)"
The Corner,2504 San Gabriel Street,78705,210,42,Multifamily,Student Housing,Project Completed,36120,41280,46440,51600,55740,Cardinal Group,512-605-0022,https://utcorner.com/,-97.74783117,30.28947518,"(30.2894751790789, -97.7478311696586)"
UH 2100 San Antonio,2100 San Antonio Street,78705,504,50,Multifamily,Student Housing,Project Completed,36120,41280,46440,51600,55740,Scion Group,512-370-2700,http://uhaustin.com/,-97.74312525,30.28418536,"(30.2841853592788, -97.7431252465542)"
Skyloft,507 W 23rd Street,78705,674,68,Multifamily,Student Housing,Project Completed,36120,41280,46440,51600,55740,Campus Advantage,737-207-9400,http://www.campusadv.com/portfolio/skyloft-austin/,-97.743507,30.286358,"(30.286358, -97.743507)"
Texas Alpha House,2501 Nueces Street,78705,17,2,Multifamily,Student Housing,Project Completed,36120,41280,46440,51600,55740,,,,-97.74277481,30.28932076,"(30.2893207610882, -97.7427748148446)"
Villas on San Gabriel II,2414 San Gabriel Street,78705,92,9,Multifamily,Student Housing,Project Completed,36120,41280,46440,51600,55740,Arthur Walston,512-968-3500,https://villasatsangabriel.com/,-97.74789193,30.28884358,"(30.2888435785374, -97.7478919302532)"
70 Rainey Street,70 Rainey Street,78721,173,9,Multifamily,Residential Housing,Building Permit Issued,48200,55050,61950,68800,74350,Worth Ross Management Company,512-476-7010,https://70rainey.com/,-97.73904084,30.25839343,"(30.2583934293919, -97.739040841415)"
AMLI 5350,5350 Burnet Road,78756,174,17,Multifamily,Residential Housing,Project Completed,48200,55050,61950,68800,74350,Amli Residential,844-536-9577,https://www.amli.com/apartments/austin/central-austin/austin/5350,-97.74045001,30.32758219,"(30.3275821884508, -97.7404500075392)"
Texan North Campus (fka Uptown Lofts),5117 N Lamar Boulevard,78751,23,2,Multifamily,Residential Housing,Project Completed,48200,55050,61950,68800,74350,Texan Properties,512-553-5287,http://www.texanproperties.net/tnc/,-97.7301367,30.31935183,"(30.3193518296524, -97.7301366977258)"
Post South Lamar,1500 S Lamar Boulevard,78704,298,30,Multifamily,Residential Housing,Project Completed,48200,55050,61950,68800,74350,MAA,512-445-9797,http://www.maac.com/texas/austin/post-south-lamar,-97.76452548,30.25255817,"(30.2525581684323, -97.7645254841521)"
Windsor  South Lamar,809 S Lamar Boulevard,78704,116,12,Multifamily,Residential Housing,Project Completed,36120,41280,46440,51600,55740,Windsor Communities,512-445-9000,https://www.windsorsola.com/?_ga=2.131103759.1897859397.1515096511-1912521076.1514995961,-97.76017251,30.25726086,"(30.2572608624833, -97.7601725143492)"
The 704,3401 S Lamar Boulevard,78704,378,38,Multifamily,Residential Housing,Project Completed,36120,41280,46440,51600,55740,CWS,512-481-7230,https://www.cwsapartments.com/apartments/tx/austin/the-704/,-97.78470969,30.24161307,"(30.2416130700261, -97.7847096867993)"
Lamar Union Apartments,1100 S Lamar Boulevard,78704,441,44,Multifamily,Residential Housing,Project Completed,36120,41280,46440,51600,55740,Greystar,512-524-5500,https://www.lamarunion.com/plaza.html,-97.76185675,30.25598205,"(30.2559820527283, -97.7618567455551)"
Camden Lamar Heights,5400 N Lamar Boulevard,78756,314,31,Multifamily,Residential Housing,Project Completed,48200,55050,61950,68800,74350,Camden,512-459-5400,https://www.camdenliving.com/austin-tx-apartments/camden-lamar-heights,-97.72936801,30.32212319,"(30.3221231908405, -97.7293680099328)"
Gibson Flats,1219 S Lamar Boulevard,78704,95,10,Multifamily,Residential Housing,Project Completed,36120,41280,46440,51600,55740,Greystar,512-326-9000,https://www.greystar.com/properties/austin-tx/gibson-flats-apartments,-97.76226679,30.25408947,"(30.2540894703905, -97.7622667885446)"
Burnet Flats,5453 Burnet Road,78756,103,10,Multifamily,Residential Housing,Project Completed,36120,41280,46440,51600,55740,Greystar,512-280-0332,https://www.greystar.com/properties/austin-tx/burnet-flats-luxury-apartments?sc_lang=en,-97.73956929,30.3301222,"(30.3301222027644, -97.7395692871635)"
The Tree,3715 S 1st Street,78704,336,34,Multifamily,Residential Housing,Project Completed,48200,55050,61950,68800,74350,Greystar,512-524-8000,https://www.greystar.com/properties/austin-tx/tree-apartments?sc_lang=en,-97.76731465,30.22898414,"(30.2289841389543, -97.767314651984)"
Post South Lamar 2,1414 S Lamar Boulevard,78704,350,35,Multifamily,Residential Housing,Project Completed,36120,41280,46440,51600,55740,MAA,512-445-9797,http://www.maac.com/texas/austin/post-south-lamar,-97.76384153,30.25292514,"(30.2529251388769, -97.7638415274829)"
7EAST,2025 E 7th Street,78702,177,18,Multifamily,Residential Housing,Project Completed,48200,55050,61950,68800,74350,Greystar,512-476-2025,https://www.greystar.com/properties/austin-tx/7east-apartments?sc_lang=en,-97.71947202,30.26156702,"(30.2615670180304, -97.7194720175522)"
Marq on Burnet,6701 Burnet Road,78757,343,34,Multifamily,Residential Housing,Project Completed,36120,41280,46440,51600,55740,CWS,512-267-5223,https://www.cwsapartments.com/apartments/tx/austin/marq-on-burnet/,-97.73800308,30.34264313,"(30.3426431307462, -97.7380030846538)"
Radius on Grove,2301 Grove Boulevard,78741,160,64,Multifamily,Residential Housing,Project Completed,48200,55050,61950,68800,74350,Pegasus Residential,512-357-3936,http://www.pegasusresidential.com/radius-on-grove-austin-tx,-97.708361,30.223744,"(30.223744, -97.708361)"
Bell South Lamar,2717 S Lamar Boulevard,78704,327,33,Multifamily,Residential Housing,Project Completed,48200,55050,61950,68800,74350,Bell Parnters,877-244-5909,https://www.bellapartmentliving.com/tx/austin/bell-south-lamar/index.aspx,-97.7810716,30.24411799,"(30.2441179932114, -97.781071602873)"
Alexan East 6th Street,2400 E 6th Street,78702,208,21,Multifamily,Residential Housing,Project Completed,48200,55050,61950,68800,74350,Alexan Properties,844-818-2443,https://alexane6.com/,-97.71570636,30.25969828,"(30.2596982820815, -97.7157063633958)"
Corazon,1000 E 5th Street,78702,332,35,Multifamily,Residential Housing,Project Completed,36120,41280,46440,51600,55740,Cap Tex Properties,512-801-3792,http://www.corazonatxapartments.com/,-97.732261,30.26434589,"(30.2643458900374, -97.7322610011026)"
The Seville on 4th Street,1401 E 4th Street,78702,27,3,Multifamily,Residential Housing,Project Completed,36120,41280,46440,51600,55740,Cap Tex Properties,512-801-3792,,-97.72924445,30.26161922,"(30.2616192174149, -97.7292444453369)"
Eastside Station (fka Saltillo Station),1700 E 4th Street,78702,332,51,Multifamily,Residential Housing,Project Completed,30100,24400,38700,43000,46450,Matrix Residential,512-482-8002,http://eastsidestationapts.com/,-97.72514289,30.26085182,"(30.2608518241264, -97.7251428867645)"
Eastside Village,1621 E 6th Street,78702,346,66,Multifamily,Residential Housing,Project Completed,36120,41280,46440,51600,55740,Lincoln Property Company,512-538-1770,http://arnoldaustin.com/,-97.72548725,30.26251461,"(30.2625146101426, -97.7254872494935)"
Saint Louise House,3200 S Lamar Boulevard,78704,24,24,Multifamily,Transitional Housing,Project Completed,30100,24400,38700,43000,46450,Saint Louise House,512-326-2774,http://saintlouisehouse.org/,-97.78530304,30.2419701,"(30.2419701034856, -97.7853030430762)"
Pointe on Rio,1901 Rio Grande Street,78705,122,12,Multifamily,Student Housing,Project Completed,48200,55050,61950,68800,74350,Asset Campus Housing,512-298-4781,http://www.pointeonrio.com/,-97.74492906,30.28285304,"(30.2828530414707, -97.7449290577006)"
ADU,5413 Duval Street,78751,1,1,ADU,Residential Housing,Project Completed,48200,55050,61950,68800,74350,,,,-97.71696523,30.31829292,"(30.3182929170268, -97.7169652260291)"
Anderson Village,3101 E 12th Street,78702,24,24,Multifamily,Residential Housing,Project Completed,48200,55050,61950,68800,74350,PRAK Property Management,512-808-7999,http://www.prakpropertymanagement.com/anderson-village.html,-97.70220995,30.27644664,"(30.2764466414759, -97.7022099532088)"
Guadalupe Neighborhood Development Corporation - SF,809 E 9th Street,78702,1,1,Single Family,Residential Housing,Project Completed,30100,24400,38700,43000,46450,Guadalupe Neighborhood Development Corporation,512-479-6275,http://www.guadalupendc.org/,-97.73283499,30.2680726,"(30.2680726015791, -97.7328349875381)"
The Nine at Austin,2518 Leon Street,78705,98,10,Multifamily,Student Housing,Building Permit Issued,36120,41280,46440,51600,55740,Spaces Management,737-777-8016,http://theninewestcampus.com/,-97.749342,30.290996,"(30.290996, -97.749342)"
Commons at Goodnight (fka Villages at Goodnight),2022 E Slaugther Lane,78747,304,304,Multifamily,Residential Housing,Building Permit Issued,36120,41280,46440,51600,55740,,,,-97.768542,30.152822,"(30.152822, -97.768542)"
Nightingale at Goodnight Ranch,5900 Charles Merle Drive,78747,174,157,Multifamily,Residential Housing,Building Permit Issued,36120,41280,46440,51600,55740,,,,-97.754254,30.157256,"(30.157256, -97.754254)"
Alexander Oaks Apartments,6119 Valiant Circle,78749,51,51,Duplex,Residential Housing,Building Permit Issued,36120,41280,46440,51600,55740,Housing Authority of Travis County,512-854-8245,http://www.hatctx.com/alexander-oaks/,-97.851947,30.233793,"(30.233793, -97.851947)"
Bridge at Cameron,9201 Cameron Road,78754,263,263,Multifamily,Residential Housing,Building Permit Issued,36120,41280,46440,51600,55740,,,,-97.67552,30.348196,"(30.348196, -97.67552)"
Colorado Creek Apartments,2917 Fallwell Lane,78617,240,216,Multifamily,Residential Housing,Building Permit Issued,48200,55050,61950,68800,74350,,,,-97.633937,30.205648,"(30.205648, -97.633937)"
1211 Inks Avenue,1211 Inks Avenue,78702,2,2,Duplex,Residential Housing,Project Completed,48200,55050,61950,68800,74350,Guadalupe Neighborhood Development Corporation,512-479-6275,http://www.guadalupendc.org/,-97.727998,30.26597,"(30.26597, -97.727998)"
Aspen West Campus,1909 Rio Grande Street,78705,464,48,Multifamily,Student Housing,Project Completed,36120,41280,46440,51600,55740,Aspen Heights,855-208-5244,https://www.myaspenheights.com/our-locations/austin/,-97.744783,30.283589,"(30.283589, -97.744783)"
2502 Nueces Street,2502 Nueces Street,78705,46,5,Multifamily,Student Housing,Project Completed,36120,41280,46440,51600,55740,Cardinal Group,512-605-0040,https://www.ruckuslofts.com/,-97.743338,30.289642,"(30.289642, -97.743338)"
Avon at 22nd,911 W 22nd Street,78705,19,2,Multifamily,Student Housing,Building Permit Issued,36120,41280,46440,51600,55740,Central Properties,512-474-0111,http://www.avonat22nd.com,-97.747712,30.285403,"(30.285403, -97.747712)"
Villages at Fiskville,10127 Middle Fiskville Road,78753,172,155,Multifamily,Senior Housing,Building Permit Issued,48200,55050,61950,68800,74350,,512-434-0288,https://villagesatfiskville.com/,-97.681344,30.364435,"(30.364435, -97.681344)"
2203 Salina Street Rehab,2203 Salina Street,78722,1,1,Single Family,Residential Housing,Project Completed,30100,24400,38700,43000,46450,Blackland Community Development Corporation,512-220-8751,https://www.blacklandcdc.org/housing/,-97.722755,30.282993,"(30.282993, -97.722755)"
Gaston Tract,2511 W Braker Lane,78758,423,14,Multifamily,Residential Housing,Building Permit Issued,36120,41280,46440,51600,55740,,,,-97.718506,30.389516,"(30.389516, -97.718506)"
Garden Terrace Phase III,1015 W William Cannon Drive,78745,20,20,Multifamily,Residential Housing,Building Permit Issued,30100,24400,38700,43000,46450,Foundation Communities,512-416-8300,http://foundcom.org/housing/our-austin-communities/garden-terrace/,-97.792919,30.198406,"(30.198406, -97.792919)"
Garden Terrace Phase III,1015 W William Cannon Drive,78745,20,20,Multifamily,Residential Housing,Building Permit Issued,30100,24400,38700,43000,46450,Foundation Communities,512-416-5300,http://foundcom.org/housing/our-austin-communities/garden-terrace/,-97.792919,30.198406,"(30.198406, -97.792919)"
Indie Apartments,1630 E 6th Street,78702,139,15,Multifamily,Residential Housing,Project Completed,36120,41280,46440,51600,55740,Lincoln Property Company,512-474-6343,http://www.indieapartments.com,-97.724864,30.262479,"(30.262479, -97.724864)"
Plaza Saltillo,1011 E 5th Street,78702,278,41,Multifamily,Residential Housing,Building Permit Issued,30100,24400,38700,43000,46450,Lincoln Property Company,512-476-1000,https://www.residencesatsaltillo.com/residences-at-saltillo-austin-tx/,-97.732588,30.263744,"(30.263744, -97.732588)"
Elan Parkside Apartments,609 Clayton Lane,78752,309,31,Multifamily,Residential Housing,Building Permit Issued,48200,55050,61950,68800,74350,Greystar,512-975-2869,https://www.greystar.com/?sc_lang=en,-97.715995,30.326874,"(30.326874, -97.715995)"
Aldrich 51,2604 Aldrich Street,78723,240,216,Multifamily,Residential Housing,Project Completed,30100,24400,38700,43000,46450,DMA Companies,512-328-3232,https://aldrich51.com/,-97.701803,30.304204,"(30.304204, -97.701803)"
Lamar Flats,3607 S Lamar Boulevard,78704,308,31,Multifamily,Residential Housing,Project Completed,48200,55050,61950,68800,74350,Greystar,512-842-6658,https://www.greystar.com/properties/austin-tx/groves-south-lamar-apartments?sc_lang=en,-97.787767,30.238968,"(30.238968, -97.787767)"
South Shore Disctrict Apartments (South Shore PUD),1333 Shore District Drive,78741,500,13,Multifamily,Residential Housing,Project Completed,36120,41280,46440,51600,55740,Grayco Partners,512-710-0242,http://www.southshoredistrict.com/,-97.727183,30.243505,"(30.243505, -97.727183)"
Heights on Parmer Phase Two,1500 E Parmer Lane,78753,80,80,Multifamily,Residential Housing,Building Permit Issued,36120,41280,46440,51600,55740,Pedcor Management Company,512-717-9112,http://www.pedcormanagement.com/Home?ID=270,-97.650793,30.390823,"(30.390823, -97.650793)"
Heights on Parmer Phase Two,1500 E Parmer Lane,78753,80,80,Multifamily,Residential Housing,Building Permit Issued,36120,41280,46440,51600,55740,Portico Property Management,512-598-0854,https://www.liveatparmerplace.com/,-97.650793,30.390823,"(30.390823, -97.650793)"
Estancia Villas,1200 Estancia Parkway,78748,312,31,Multifamily,Residential Housing,Project Completed,36120,41280,46440,51600,55740,JCI Residential,512-291-4040,http://www.estanciavillas.com,-97.806329,30.123555,"(30.123555, -97.806329)"
The Park at Estancia,820 Camino Vaquero Parkway,78652,320,32,Multifamily,Residential Housing,Building Permit Issued,36120,41280,46440,51600,55740,,,,-97.804756,30.123941,"(30.123941, -97.804756)"
5006 West Wind Trail,5006 West Wind Trail,78745,4,3,FourPlex,Residential Housing,Project Completed,30100,24400,38700,43000,46450,Frameworks Community Development Corporation,512-385-1500,https://frameworkscdc.org/,-97.80452,30.226519,"(30.226519, -97.80452)"
Westgate Ridge Multifamily,8700 Westgate Boulevard,78745,140,140,Multifamily,Residential Housing,Project Completed,36120,41280,46440,51600,55740,Pedcor Management Company,512-717-5706,http://www.pedcormanagement.com/Home?ID=300,-97.832658,30.192697,"(30.192697, -97.832658)"
SafePlace 14 Unit Expansion,Undisclosed,78741,14,14,Multifamily,Transitional Housing,Project Completed,30100,24400,38700,43000,46450,,,,-97.705841,30.231371,"(30.231371, -97.705841)"
The Nine at Rio,2100 Rio Grande Street,78705,109,11,Multifamily,Student Housing,Building Permit Issued,36120,41280,46440,51600,55740,,737-777-9226,https://www.liveatninerio.com/,-97.745293,30.284272,"(30.284272, -97.745293)"
Guadalupe Saldana - Duplex,1220 Paul Theresa Saldana Street,78702,2,2,Duplex,Residential Housing,Project Completed,30100,24400,38700,43000,46450,Guadalupe Neighborhood Development Corporation,512-479-6275,http://www.guadalupendc.org/,-97.702958,30.269889,"(30.269889, -97.702958)"
Guadalupe Saldana - Duplex,1216 Paul Theresa Saldana Street,78702,2,2,Duplex,Residential Housing,Project Completed,30100,24400,38700,43000,46450,Guadalupe Neighborhood Development Corporation,512-479-6275,http://www.guadalupendc.org/,-97.70301,30.269795,"(30.269795, -97.70301)"
Guadalupe Saldana - Duplex,1212 Paul Theresa Saldana Street,78702,2,2,Duplex,Residential Housing,Project Completed,30100,24400,38700,43000,46450,Guadalupe Neighborhood Development Corporation,512-479-6275,http://www.guadalupendc.org/,-97.703051,30.269697,"(30.269697, -97.703051)"
Guadalupe Saldana - Duplex,1208 Paul Theresa Saldana Street,78702,2,2,Duplex,Residential Housing,Project Completed,30100,24400,38700,43000,46450,Guadalupe Neighborhood Development Corporation,512-479-6275,http://www.guadalupendc.org/,-97.703096,30.269601,"(30.269601, -97.703096)"
Jeremiah House,1200 Paul Theresa Saldana Street,78702,35,35,Multifamily,Residential Housing,Project Completed,30100,24400,38700,43000,46450,Guadalupe Neighborhood Development Corporation,512-479-6275,http://www.guadalupendc.org/,-97.703014,30.269267,"(30.269267, -97.703014)"
2200 Nueces Street,2200 Nueces Street,78705,439,44,Multifamily,Student Housing,Building Permit Issued,36120,41280,46440,51600,55740,,,,-97.744188,30.285401,"(30.285401, -97.744188)"
Mosaic at Mueller,4600 Mueller Boulevard,78723,441,44,Multifamily,Residential Housing,Project Completed,36120,41280,46440,51600,55740,Greystar,512-474-5483,https://www.mosaicaustin.com/,-97.707922,30.298876,"(30.298876, -97.707922)"
Overture Mueller Apartments,4818 Berkman Drive,78723,201,30,Multifamily,Residential Housing,Project Completed,36120,41280,46440,51600,55740,Greystar,512-942-0763,https://www.liveoverture.com/communities/austin-mueller/,-97.70043,30.3007,"(30.3007, -97.70043)"
Amli at Mueller,1900 Simond Avenue,78723,279,42,Multifamily,Residential Housing,Project Completed,36120,41280,46440,51600,55740,Amli Residential,844-886-9487,https://www.amli.com/apartments/austin/central-austin/austin/mueller,-97.703698,30.29717,"(30.29717, -97.703698)"
AMLI at Mueller II,2401 Aldrich Street,78723,318,48,Multifamily,Residential Housing,Project Completed,36120,41280,46440,51600,55740,Amli Residential,512-879-6744,https://www.amli.com/apartments/austin/central-austin/austin/aldrich?switch_code=58696,-97.702038,30.302392,"(30.302392, -97.702038)"
SYNC at Mueller,4646 Mueller Boulevard,78723,301,30,Multifamily,Residential Housing,Project Completed,36120,41280,46440,51600,55740,Sync Residential,512-354-8431,https://www.syncatmueller.com/,-97.707066,30.299166,"(30.299166, -97.707066)"
Harris Ridge Apartments,1501 E Howard Lane,78754,324,324,Multifamily,Residential Housing,Building Permit Issued,36120,41280,46440,51600,55740,NRP Group,844-678-8832,https://www.bridgeharrisridge.com/,-97.643651,30.406351,"(30.406351, -97.643651)"
West Koenig Flats,5608 Avenue F,78751,210,21,Multifamily,Residential Housing,Project Completed,48200,55050,61950,68800,74350,Greystar,512-374-0733,https://www.westkoenigaustin.com/,-97.719384,30.321814,"(30.321814, -97.719384)"
48 East Ave,48 East Avenue,78701,240,7,Multifamily,Residential Housing,Building Permit Issued,48200,55050,61950,68800,74350,,,,-97.738824,30.256483,"(30.256483, -97.738824)"
Arnold 2,1614 E 6th Street,78702,115,20,Multifamily,Residential Housing,Building Permit Issued,36120,41280,46440,51600,55740,Lincoln Property Company,512-861-0111,http://www.arnoldaustin.com,-97.725487,30.26298,"(30.26298, -97.725487)"
The Residences at The Domain,11400 Domain Drive,78758,390,39,Multifamily,Residential Housing,Project Completed,39150,44700,50300,55900,60350,UDR,512-237-7838,https://www.udr.com/austin-apartments/north-burnet/residences-at-the-domain/,-97.72493,30.400623,"(30.400623, -97.72493)"
The Villages at The Domain,11011 Domain Drive,78758,436,3,Multifamily,Residential Housing,Project Completed,39150,44700,50300,55900,60350,Lincoln Property Company,866-842-6770,https://www.lincolnapts.com/properties/villages-at-the-domain-austin-tx/connect,-97.725756,30.396506,"(30.396506, -97.725756)"
ACDDC - Alley Flat,1406 Ruth Avenue,78757,1,1,Single Family,Residential Housing,Project Completed,48200,55050,61950,68800,74350,,,,-97.728433,30.338875,"(30.338875, -97.728433)"
North Shore Apartments (GWTP MDA),110 San Antonio Street,78701,439,50,Multifamily,Residential Housing,Project Completed,48200,55050,61950,68800,74350,Hanover Company,512-559-7559,https://www.northshoreaustin.com/,-97.749563,30.265385,"(30.265385, -97.749563)"
AMLI - South Shore Phase I,1620 E Riverside Drive,78741,375,19,Multifamily,Residential Housing,Project Completed,48200,55050,61950,68800,74350,Amli Residential,512-447-1620,https://www.amli.com/apartments/austin/central-east-austin/austin/south-shore,-97.730066,30.245117,"(30.245117, -97.730066)"
AMLI South Shore Phase II,1620 E Riverside Drive,78741,75,4,Multifamily,Residential Housing,Building Permit Issued,48200,55050,61950,68800,74350,Amli Residential,512-447-1620,https://www.amli.com/apartments/austin/central-east-austin/austin/south-shore,-97.730198,30.245229,"(30.245229, -97.730198)"
Amli Eastside,1000 San Marcos Street,78702,290,29,Multifamily,Residential Housing,Project Completed,48200,55050,61950,68800,74350,Amli Residential,512-476-8700,https://www.amli.com/apartments/austin/downtown/austin/eastside,-97.731273,30.268964,"(30.268964, -97.731273)"
FLORA Apartments,5406 Middle Fiskville Road,78751,194,19,Multifamily,Residential Housing,Building Permit Issued,48200,55050,61950,68800,74350,,512-323-5672,https://www.floraaustin.com/,-97.714957,30.316671,"(30.316671, -97.714957)"
The Creekview Apartment Homes,5001 Crainway Drive,78724,264,264,Multifamily,Residential Housing,Building Permit Issued,36120,41280,46440,51600,55740,,,,-97.658889,30.319166,"(30.319166, -97.658889)"
The Guthrie II,3215 Gonzales Street,78702,12,1,Multifamily,Residential Housing,Building Permit Issued,36120,41280,46440,51600,55740,Cypress Residential,512-389-9097,https://theguthrieaustin.com/,-97.704573,30.258311,"(30.258311, -97.704573)"
Pathways at Goodrich Place,2126 Goodrich Avenue,78704,120,110,Multifamily,Residential Housing,Building Permit Issued,36120,41280,46440,51600,55740,Housing Authority of the City of Austin,512-447-0967,https://www.hacanet.org/location/goodrich-place/,-97.773865,30.248315,"(30.248315, -97.773865)"
Villas on Nueces,2207 Nueces Street,78705,99,10,Multifamily,Student Housing,Building Permit Issued,36120,41280,46440,51600,55740,,512-772-3636,https://www.villasonnueces.com/,-97.743575,30.285871,"(30.285871, -97.743575)"
Highland Phase II South,109 Jacob Fontaine Lane,78752,168,17,Multifamily,Residential Housing,Building Permit Issued,48200,55050,61950,68800,74350,,,,-97.714668,30.324758,"(30.324758, -97.714668)"
Highland Phase II - North,110 Jacob Fontaine Lane,78752,222,22,Multifamily,Residential Housing,Building Permit Issued,48200,55050,61950,68800,74350,,,,-97.714668,30.324758,"(30.324758, -97.714668)"
4008 Brookview (ADU),4008 Brookview Road,78722,1,1,Single Family,Residential Housing,Building Permit Issued,48200,55050,61950,68800,74350,,,,-97.71003,30.294169,"(30.294169, -97.71003)"
St Johns West Apartments,601 W St Johns Avenue,78752,297,30,Multifamily,Residential Housing,Building Permit Issued,36120,41280,46440,51600,55740,,,,-97.714785,30.337701,"(30.337701, -97.714785)"
Amli on 2nd,421 W 3rd Street,78701,231,12,Multifamily,Residential Housing,Project Completed,48200,55050,61950,68800,74350,Amli Residential,512-472-0421,https://www.amli.com/apartments/austin/downtown/austin/2nd-street/floorplans,-97.748074,30.266143,"(30.266143, -97.748074)"
700 E 11th Street,700 E 11th Street,78701,276,4,Multifamily,Residential Housing,Building Permit Issued,48200,55050,61950,68800,74350,,,,-97.733918,30.271082,"(30.271082, -97.733918)"
Tricia & David Ciccocioppo (Homeowners) -Alley Flat,1608 Cedar Avenue,78702,1,1,ADU,Residential Housing,Building Permit Issued,48200,55050,61950,68800,74350,,,,-97.714054,30.278448,"(30.278448, -97.714054)"
Pathways at Chalmers Court - South,1638 E 2nd Street,78702,87,87,Multifamily,Residential Housing,Building Permit Issued,36120,41280,46440,51600,55740,Housing Authority of the City of Austin,512-447-0967,https://www.hacanet.org/location/goodrich-place/,-97.726547,30.259144,"(30.259144, -97.726547)"
Six Ten,620 W 24th Street,78705,67,7,Multifamily,Student Housing,Building Permit Issued,36120,41280,46440,51600,55740,,,,-97.743941,30.288072,"(30.288072, -97.743941)"
GNDC Alley Flats,2808 Gonzales Street,78702,1,1,Single Family,Residential Housing,Project Completed,30100,24400,38700,43000,46450,Guadalupe Neighborhood Development Corporation,512-479-6275,http://www.guadalupendc.org/,-97.708853,30.260303,"(30.260303, -97.708853)"
GNDC Alley Flats,2808 Gonzales Street,78702,1,1,ADU,Residential Housing,Project Completed,30100,24400,38700,43000,46450,Guadalupe Neighborhood Development Corporation,512-479-6275,http://www.guadalupendc.org/,-97.708853,30.260303,"(30.260303, -97.708853)"
Yellowstone Apartments,1215 E 52nd Street,78723,16,16,Multifamily,Residential Housing,Project Completed,36120,41280,46440,51600,55740,,512-452-8631,http://yellowstoneap.startlogic.com/,-97.706658,30.30867,"(30.30867, -97.706658)"
4910 West Wind Trail,4910 W Wind Trail,78745,4,3,FourPlex,Residential Housing,Project Completed,30100,24400,38700,43000,46450,Frameworks Community Development Corporation,512-385-1500,https://frameworkscdc.org/,-97.8042,30.227193,"(30.227193, -97.8042)"
Accessible Housing Austin! - SF,9407 Kempler Drive,78748,2,2,Single Family,Accessible Housing,Project Completed,30100,24400,38700,43000,46450,Accessible Housing Austin!,512-640-7781,http://www.ahaustin.org,-97.822205,30.178196,"(30.178196, -97.822205)"
Accessible Housing Austin! - SF,7624 Cayenne Lane,78741,1,1,Single Family,Accessible Housing,Project Completed,30100,24400,38700,43000,46450,Accessible Housing Austin!,512-640-7781,http://www.ahaustin.org,-97.691337,30.224075,"(30.224075, -97.691337)"
Accessible Housing Austin! - SF,7009 Thannas Way,78744,1,1,Single Family,Accessible Housing,Project Completed,30100,24400,38700,43000,46450,Accessible Housing Austin!,512-640-7781,http://www.ahaustin.org,-97.756125,30.177723,"(30.177723, -97.756125)"
Accessible Housing Austin! - SF,3705 Tamil Street,78749,1,1,Single Family,Accessible Housing,Project Completed,30100,24400,38700,43000,46450,Accessible Housing Austin!,512-640-7781,http://www.ahaustin.org,-97.836008,30.211278,"(30.211278, -97.836008)"
IBM 45 Multifamily-Flatiron Domain,10727 Domain Drive,78758,363,39,Multifamily,Residential Housing,Building Permit Issued,36120,41280,46440,51600,55740,Greystar,512-623-7527,https://flatirondomain.com/,-97.725581,30.393743,"(30.393743, -97.725581)"
Walnut Creek Apartments,6409 Springdale Rd,78723,98,98,Multifamily,Residential Housing,Building Permit Issued,36120,41280,46440,51600,55740,,,,-97.668769,30.30718,"(30.30718, -97.668769)"
The Reserve at Walnut Creek (fka Springdale Apartments),8038 Exchange Drive,78754,98,98,Multifamily,Residential Housing,Project Completed,36120,41280,46440,51600,55740,Roscoe Properties,512-926-6565,https://www.reserveatwalnutcreek.com/,-97.664626,30.332583,"(30.332583, -97.664626)"
The Heights on South Congress (fka South Congress Village),2703 S Congress Avenue,78704,172,172,Multifamily,Residential Housing,Project Completed,36120,41280,46440,51600,55740,UAH Property Management,512-441-1437,https://www.heightsoncongress.com/,-97.756111,30.235242,"(30.235242, -97.756111)"
Santa Maria Village Apartments,8071 N Lamar Boulevard,78753,176,176,Multifamily,Residential Housing,Project Completed,30100,24400,38700,43000,46450,,,,-97.71088,30.348604,"(30.348604, -97.71088)"
Runnymeade Apartments,1101 Rutland Drive,78758,252,252,Multifamily,Residential Housing,Project Completed,36120,41280,46440,51600,55740,,512-836-9711,,-97.702694,30.366941,"(30.366941, -97.702694)"
Rosemont at Oak Valley (fka Pleasant Valley Villas),2800 Collins Creek Drive,78741,280,280,Multifamily,Residential Housing,Project Completed,36120,41280,46440,51600,55740,Good Harbor Management,512-326-5155,http://rosemontatoakvalley.com/,-97.731191,30.224565,"(30.224565, -97.731191)"
Fairway Village Apartments,6118 Fairway Street,78741,128,128,Multifamily,Residential Housing,Project Completed,30100,24400,38700,43000,46450,,512-386-8888,,-97.702416,30.229522,"(30.229522, -97.702416)"
Villas on Sixth,2011 E 6th Street,78702,160,136,Multifamily,Residential Housing,Project Completed,36120,41280,46440,51600,55740,Guardian Management,512-314-5483,https://www.villasonsixthapts.com/,-97.720192,30.260722,"(30.260722, -97.720192)"
Primrose at Shadow Creek (fka Arbors Creekside),1026 Clayton Lane,78723,176,176,Multifamily,Senior Housing,Project Completed,36120,41280,46440,51600,55740,Good Harbor Management,512-419-1525,http://primroseofshadowcreek.com/,-97.704317,30.319659,"(30.319659, -97.704317)"
Timbers Apartments,1034 Clayton Lane,78723,104,104,Multifamily,Residential Housing,Project Completed,36120,41280,46440,51600,55740,,512-459-1038,,-97.703606,30.319351,"(30.319351, -97.703606)"
Heritage Heights,1609 E 11th Street,78702,1,1,Single Family,Residential Housing,Project Completed,36120,41280,46440,51600,55740,PRAK Property Management,512-808-7999,http://www.prakpropertymanagement.com/home.html,-97.72386,30.267028,"(30.267028, -97.72386)"
Heritage Heights,1611 E 11th Street,78702,1,1,Single Family,Residential Housing,Project Completed,36120,41280,46440,51600,55740,PRAK Property Management,512-808-7999,http://www.prakpropertymanagement.com/home.html,-97.7237,30.266957,"(30.266957, -97.7237)"
Heritage Heights,1603 E 10th Street,78702,1,1,Single Family,Residential Housing,Project Completed,36120,41280,46440,51600,55740,PRAK Property Management,512-808-7999,http://www.prakpropertymanagement.com/home.html,-97.724708,30.266283,"(30.266283, -97.724708)"
Heritage Heights,1605 E 10th Street,78702,1,1,Single Family,Residential Housing,Project Completed,36120,41280,46440,51600,55740,PRAK Property Management,512-808-7999,http://www.prakpropertymanagement.com/home.html,-97.724673,30.266166,"(30.266166, -97.724673)"
Heritage Heights,1607 E 10th Street,78702,1,1,Single Family,Residential Housing,Project Completed,36120,41280,46440,51600,55740,PRAK Property Management,512-808-7999,http://www.prakpropertymanagement.com/home.html,-97.724503,30.266121,"(30.266121, -97.724503)"
Heritage Heights,1610 E 10th Street,78702,1,1,Single Family,Residential Housing,Project Completed,36120,41280,46440,51600,55740,PRAK Property Management,512-808-7999,http://www.prakpropertymanagement.com/home.html,-97.723987,30.266482,"(30.266482, -97.723987)"
Heritage Heights,1608 E 10th Street,78702,1,1,Single Family,Residential Housing,Project Completed,36120,41280,46440,51600,55740,PRAK Property Management,512-808-7999,http://www.prakpropertymanagement.com/home.html,-97.724124,30.266574,"(30.266574, -97.724124)"
Heritage Heights,1604 E 10th Street,78702,1,1,Single Family,Residential Housing,Project Completed,36120,41280,46440,51600,55740,PRAK Property Management,512-808-7999,http://www.prakpropertymanagement.com/home.html,-97.724337,30.266652,"(30.266652, -97.724337)"
Heritage Heights,1607 E 10th Street,78702,1,1,Single Family,Residential Housing,Project Completed,36120,41280,46440,51600,55740,PRAK Property Management,512-808-7999,http://www.prakpropertymanagement.com/home.html,-97.724505,30.266118,"(30.266118, -97.724505)"
Heritage Heights,1608 E 9th Street,78702,1,1,Single Family,Residential Housing,Project Completed,36120,41280,46440,51600,55740,PRAK Property Management,512-808-7999,http://www.prakpropertymanagement.com/home.html,-97.724707,30.265298,"(30.265298, -97.724707)"
Heritage Heights,1602 E 9th Street,78702,1,1,Single Family,Residential Housing,Project Completed,36120,41280,46440,51600,55740,PRAK Property Management,512-808-7999,http://www.prakpropertymanagement.com/home.html,-97.724932,30.265855,"(30.265855, -97.724932)"
Heritage Heights,1600 E 9th Street,78702,1,1,Single Family,Residential Housing,Project Completed,36120,41280,46440,51600,55740,PRAK Property Management,512-808-7999,http://www.prakpropertymanagement.com/home.html,-97.725015,30.265715,"(30.265715, -97.725015)"
Heritage Heights,1605 E 9th Street,78702,1,1,Single Family,Residential Housing,Project Completed,36120,41280,46440,51600,55740,PRAK Property Management,512-808-7999,http://www.prakpropertymanagement.com/home.html,-97.724973,30.26536,"(30.26536, -97.724973)"
Heritage Heights,1607 E 9th Street,78702,1,1,Single Family,Residential Housing,Project Completed,36120,41280,46440,51600,55740,PRAK Property Management,512-808-7999,http://www.prakpropertymanagement.com/home.html,-97.724877,30.265309,"(30.265309, -97.724877)"
Heritage Heights,1609 E 9th Street,78702,1,1,Single Family,Residential Housing,Project Completed,36120,41280,46440,51600,55740,PRAK Property Management,512-808-7999,http://www.prakpropertymanagement.com/home.html,-97.724708,30.265297,"(30.265297, -97.724708)"
Heritage Heights,1621 E 11th Street,78702,1,1,Single Family,Residential Housing,Project Completed,36120,41280,46440,51600,55740,PRAK Property Management,512-808-7999,http://www.prakpropertymanagement.com/home.html,-97.723149,30.266767,"(30.266767, -97.723149)"
Heritage Heights,1625 E 11th Street,78702,1,1,Single Family,Residential Housing,Project Completed,36120,41280,46440,51600,55740,PRAK Property Management,512-808-7999,http://www.prakpropertymanagement.com/home.html,-97.722927,30.266657,"(30.266657, -97.722927)"
Heritage Heights,1627 E 11th Street,78723,1,1,Single Family,Residential Housing,Project Completed,36120,41280,46440,51600,55740,PRAK Property Management,512-808-7999,http://www.prakpropertymanagement.com/home.html,-97.722927,30.266657,"(30.266657, -97.722927)"
Heritage Heights,1623 E 11th Steet,78723,1,1,Single Family,Residential Housing,Project Completed,36120,41280,46440,51600,55740,PRAK Property Management,512-808-7999,http://www.prakpropertymanagement.com/home.html,-97.723054,30.266717,"(30.266717, -97.723054)"
Heritage Heights,1619 E 10th Street,78702,1,1,Single Family,Residential Housing,Project Completed,36120,41280,46440,51600,55740,PRAK Property Management,512-808-7999,http://www.prakpropertymanagement.com/home.html,-97.72366,30.265931,"(30.265931, -97.72366)"
Heritage Heights,1625 E 10th Street,78702,1,1,Single Family,Residential Housing,Project Completed,36120,41280,46440,51600,55740,PRAK Property Management,512-808-7999,http://www.prakpropertymanagement.com/home.html,-97.723292,30.2657,"(30.2657, -97.723292)"
Heritage Heights,1624 E 10th Street,78702,1,1,Single Family,Residential Housing,Project Completed,36120,41280,46440,51600,55740,PRAK Property Management,512-808-7999,http://www.prakpropertymanagement.com/home.html,-97.723095,30.266176,"(30.266176, -97.723095)"
Heritage Heights,1622 E 10th Street,78702,1,1,Single Family,Residential Housing,Project Completed,36120,41280,46440,51600,55740,PRAK Property Management,512-808-7999,http://www.prakpropertymanagement.com/home.html,-97.723201,30.266259,"(30.266259, -97.723201)"
Heritage Heights,1626 E 10th Street,78702,1,1,Single Family,Residential Housing,Project Completed,36120,41280,46440,51600,55740,PRAK Property Management,512-808-7999,http://www.prakpropertymanagement.com/home.html,-97.723066,30.266016,"(30.266016, -97.723066)"
AHFC - SF,7212 Providence Avenue,78752,1,1,Single Family,Residential Housing,Project Completed,48200,55050,61950,68800,74350,PRAK Property Management,512-808-7999,http://www.prakpropertymanagement.com/home.html,-97.696935,30.330556,"(30.330556, -97.696935)"
AHFC - SF,2008 E 10th Street,78702,1,1,Single Family,Residential Housing,Project Completed,36120,41280,46440,51600,55740,PRAK Property Management,512-808-7999,http://www.prakpropertymanagement.com/home.html,-97.71899,30.264686,"(30.264686, -97.71899)"